package at.fhv.streamprocessing.flink;

import org.apache.flink.streaming.api.functions.source.SourceFunction;

import java.util.ArrayList;
import java.util.List;

public class WeatherDataMockSource implements SourceFunction<String> {

    @Override
    public void run(SourceContext<String> sourceContext) throws Exception {
        List<String> mockData = createMockList();
        for (String mockDatum : mockData) {
            sourceContext.collect(mockDatum);
            Thread.sleep(100);
        }
    }

    @Override
    public void cancel() {

    }

    private static List<String> createMockList() {
        List<String> mockList = new ArrayList<>();
        mockList.add("0169A06884004162022010104556+38667-078501FM-15+0275KLUA V0202205N004652200059N0160935N5+0120C+0100C999999ADDGA1045+014335999GD12991+0143359MA1101025097765REMMET07612/31/21 23:55:02 METAR KLUA 010455Z 22009KT 10SM SCT047 12/10 A2983 RMK AO2EQDR01    127TMP046R02    107DPT046");
        mockList.add("0131A06884004162022010105156+38667-078501FM-15+0275KLUA V0202105N004152200059N0160935N5+01205+01005999999ADDGA1005+999999999GD10991+9999999MA1101025097765REMMET07301/01/22 00:15:02 METAR KLUA 010515Z 21008KT 10SM CLR 12/10 A2983 RMK AO2");
        mockList.add("0131A06884004162022010105356+38667-078501FM-15+0275KLUA V0202005N003152200059N0160935N5+01205+01005999999ADDGA1005+999999999GD10991+9999999MA1101025097765REMMET07301/01/22 00:35:02 METAR KLUA 010535Z 20006KT 10SM CLR 12/10 A2983 RMK AO2");
        mockList.add("0166A06884004162022010105556+38667-078501FM-15+0275KLUA V0202105N002152200059N0160935N5+0120C+0100C999999ADDGA1005+999999999GD10991+9999999MA1101055097795REMMET07301/01/22 00:55:02 METAR KLUA 010555Z 21004KT 10SM CLR 12/10 A2984 RMK AO2EQDR01    127TMP046R02    107DPT046");
        mockList.add("0131A06884004162022010106156+38667-078501FM-15+0275KLUA V0202205N003152200059N0160935N5-01105+01005999999ADDGA1005+999999999GD10991+9999999MA1101025097765REMMET07301/01/22 01:15:02 METAR KLUA 010615Z 22006KT 10SM CLR 11/10 A2983 RMK AO2");
        mockList.add("0131A06884004162022010106356+38667-078501FM-15+0275KLUA V0202205N003652200059N0160935N5+01205+01005999999ADDGA1005+999999999GD10991+9999999MA1101025097765REMMET07301/01/22 01:35:02 METAR KLUA 010635Z 22007KT 10SM CLR 12/10 A2983 RMK AO2");
        mockList.add("0166A06884004162022010106556+38667-078501FM-15+0275KLUA V0202205N004152200059N0160935N5+0120C+0100C999999ADDGA1005+999999999GD10991+9999999MA1101055097795REMMET07301/01/22 01:55:02 METAR KLUA 010655Z 22008KT 10SM CLR 12/10 A2984 RMK AO2EQDR01    127TMP046R02    107DPT046");
        mockList.add("0131A06884004162022010107156+38667-078501FM-15+0275KLUA V0202205N004152200059N0160935N5+01205+01005999999ADDGA1005+999999999GD10991+9999999MA1101055097795REMMET07301/01/22 02:15:02 METAR KLUA 010715Z 22008KT 10SM CLR 12/10 A2984 RMK AO2");
        mockList.add("0131A06884004162022010107356+38667-078501FM-15+0275KLUA V0202205N003652200059N0160935N5+01205+01005999999ADDGA1005+999999999GD10991+9999999MA1101055097795REMMET07301/01/22 02:35:02 METAR KLUA 010735Z 22007KT 10SM CLR 12/10 A2984 RMK AO2");
        mockList.add("0166A06884004162022010107556+38667-078501FM-15+0275KLUA V0202305N002652200059N0160935N5+0120C+0100C999999ADDGA1005+999999999GD10991+9999999MA1101025097765REMMET07301/01/22 02:55:02 METAR KLUA 010755Z 23005KT 10SM CLR 12/10 A2983 RMK AO2EQDR01    127TMP046R02    107DPT046");
        mockList.add("0131A06884004162022010108156+38667-078501FM-15+0275KLUA V0202305N002152200059N0160935N5+01205+01005999999ADDGA1005+999999999GD10991+9999999MA1101025097765REMMET07301/01/22 03:15:02 METAR KLUA 010815Z 23004KT 10SM CLR 12/10 A2983 RMK AO2");
        mockList.add("0131A06884004162022010108356+38667-078501FM-15+0275KLUA V0202105N001552200059N0160935N5+01205+01005999999ADDGA1005+999999999GD10991+9999999MA1101025097765REMMET07301/01/22 03:35:02 METAR KLUA 010835Z 21003KT 10SM CLR 12/10 A2983 RMK AO2");
        mockList.add("0166A06884004162022010108556+38667-078501FM-15+0275KLUA V0202205N001552200059N0160935N5+0120C+0100C999999ADDGA1005+999999999GD10991+9999999MA1100955097705REMMET07301/01/22 03:55:02 METAR KLUA 010855Z 22003KT 10SM CLR 12/10 A2981 RMK AO2EQDR01    127TMP046R02    107DPT046");
        mockList.add("0131A06884004162022010109156+38667-078501FM-15+0275KLUA V0209999C000052200059N0160935N5+01005+00805999999ADDGA1005+999999999GD10991+9999999MA1100955097705REMMET07301/01/22 04:15:02 METAR KLUA 010915Z 00000KT 10SM CLR 10/08 A2981 RMK AO2");
        mockList.add("0131A06884004162022010109356+38667-078501FM-15+0275KLUA V0209999C000052200059N0160935N5+01005+00905999999ADDGA1005+999999999GD10991+9999999MA1100955097705REMMET07301/01/22 04:35:02 METAR KLUA 010935Z 00000KT 10SM CLR 10/09 A2981 RMK AO2");
        mockList.add("0166A06884004162022010109556+38667-078501FM-15+0275KLUA V0209999C000052200059N0160935N5+0080C+0080C999999ADDGA1005+999999999GD10991+9999999MA1100955097705REMMET07301/01/22 04:55:02 METAR KLUA 010955Z 00000KT 10SM CLR 08/08 A2981 RMK AO2EQDR01    087TMP046R02    087DPT046");
        mockList.add("0131A06884004162022010110156+38667-078501FM-15+0275KLUA V0209999C000052200059N0160935N5+01005+00905999999ADDGA1005+999999999GD10991+9999999MA1100955097705REMMET07301/01/22 05:15:02 METAR KLUA 011015Z 00000KT 10SM CLR 10/09 A2981 RMK AO2");
        mockList.add("0134A06884004162022010110356+38667-078501FM-15+0275KLUA V0209999C000052200059N0160935N5+01005+00905999999ADDGA1045+036585999GD12991+0365859MA1100955097705REMMET07601/01/22 05:35:02 METAR KLUA 011035Z 00000KT 10SM SCT120 10/09 A2981 RMK AO2");
        mockList.add("0234A06884004162022010110556+38667-078501FM-15+0275KLUA V0201405N00155033535MN0160935N5+0110C+0100C999999ADDAU110020015AW1615GA1045+022865999GA2075+033535999GD12991+0228659GD23991+0335359MA1100985097735MW1615REMMET08701/01/22 05:55:02 METAR KLUA 011055Z 14003KT 10SM -RA SCT075 BKN110 11/10 A2982 RMK AO2EQDR01    117TMP046R02    107DPT046");
        mockList.add("0237A06884004162022010111156+38667-078501FM-15+0275KLUA V0209999C00005016765MN0160935N5+01105+01005999999ADDAU110020015AW1615GA1045+010065999GA2075+016765999GA3085+030485999GD12991+0100659GD23991+0167659GD34991+0304859MA1100985097735MW1615REMMET09401/01/22 06:15:02 METAR KLUA 011115Z 00000KT 10SM -RA SCT033 BKN055 OVC100 11/10 A2982 RMK AO2");
        mockList.add("0253A06884004162022010111356+38667-078501FM-15+0275KLUA V0209999C00005025915MN0160935N5+01105+01005999999ADDAA101000395AU120020015AW1625GA1045+011585999GA2045+014635999GA3085+025915999GD12991+0115859GD22991+0146359GD34991+0259159MA1100985097735MW1655REMMET09901/01/22 06:35:02 METAR KLUA 011135Z 00000KT 10SM RA SCT038 SCT048 OVC085 11/10 A2982 RMK AO2 P0001");
        mockList.add("0251A06884004162022010111556+38667-078501FM-15+0275KLUA V0209999C00005025915MN0160935N5+0100C+0100C999999ADDAA101000395AU110020015AW1615GA1045+015245999GA2085+025915999GD12991+0152459GD24991+0259159MA1100955097705MW1615REMMET09301/01/22 06:55:02 METAR KLUA 011155Z 00000KT 10SM -RA SCT050 OVC085 10/10 A2981 RMK AO2 P0001EQDR01    107TMP046R02    107DPT046");
        mockList.add("0236A06884004162022010112156+38667-078501FM-15+0275KLUA V0203305N00155025915MN0112655N5+01005+01005999999ADDAU110020015AW1615GA1045+015245999GA2045+021345999GA3085+025915999GD12991+0152459GD22991+0213459GD34991+0259159MA1100955097705MW1615REMMET09301/01/22 07:15:02 METAR KLUA 011215Z 33003KT 7SM -RA SCT050 SCT070 OVC085 10/10 A2981 RMK AO2");
        mockList.add("0214A06884004162022010112356+38667-078501FM-15+0275KLUA V0209999C00005025915MN0112655N5+01005+01005999999ADDAA101000395AU120020015AW1625GA1045+018295999GA2085+025915999GD12991+0182959GD24991+0259159MA1100915097665MW1655REMMET09101/01/22 07:35:02 METAR KLUA 011235Z 00000KT 7SM RA SCT060 OVC085 10/10 A2980 RMK AO2 P0001");
        mockList.add("0288A06884004162022010112556+38667-078501FM-15+0275KLUA V0209999C00005021345MN0080475N5+0100C+0100C999999ADDAA101000895AU110020015AW1615GA1045+014635999GA2075+021345999GA3085+025915999GD12991+0146359GD23991+0213459GD34991+0259159MA1100955097705MW1615REMMET09901/01/22 07:55:02 METAR KLUA 011255Z 00000KT 5SM -RA SCT048 BKN070 OVC085 10/10 A2981 RMK AO2 P0003EQDR01    107TMP046R02    107DPT046");
        mockList.add("0252A06884004162022010113156+38667-078501FM-15+0275KLUA V0209999C00005015245MN0064375N5+01105+01005999999ADDAA101000595AU120020015AW1625GA1045+014635999GA2075+015245999GA3085+021345999GD12991+0146359GD23991+0152459GD34991+0213459MA1100915097665MW1655REMMET09801/01/22 08:15:02 METAR KLUA 011315Z 00000KT 4SM RA SCT048 BKN050 OVC070 11/10 A2980 RMK AO2 P0002");
        mockList.add("0253A06884004162022010113356+38667-078501FM-15+0275KLUA V0209999C00005015245MN0064375N5+01105+01105999999ADDAA101001095AU110020015AW1615GA1045+013725999GA2075+015245999GA3085+021345999GD12991+0137259GD23991+0152459GD34991+0213459MA1100955097705MW1615REMMET09901/01/22 08:35:02 METAR KLUA 011335Z 00000KT 4SM -RA SCT045 BKN050 OVC070 11/11 A2981 RMK AO2 P0004");
        mockList.add("0250A06884004162022010113556+38667-078501FM-15+0275KLUA V0209999C00005015245MN0048285N5+0110C+0110C999999ADDAA101001395AU110020015AW1615GA1075+015245999GA2085+021345999GD13991+0152459GD24991+0213459MA1100955097705MW1615REMMET09201/01/22 08:55:02 METAR KLUA 011355Z 00000KT 3SM -RA BKN050 OVC070 11/11 A2981 RMK AO2 P0005EQDR01    117TMP046R02    117DPT046");
        mockList.add("0256A06884004162022010114156+38667-078501FM-15+0275KLUA V0209999C00005015245MN0040235N5+01105+01105999999ADDAA101000595AU120020015AW1625GA1045+007925999GA2045+013415999GA3085+015245999GD12991+0079259GD22991+0134159GD34991+0152459MA1100955097705MW1655REMMET10201/01/22 09:15:02 METAR KLUA 011415Z 00000KT 2 1/2SM RA SCT026 SCT044 OVC050 11/11 A2981 RMK AO2 P0002");
        mockList.add("0215A06884004162022010114356+38667-078501FM-15+0275KLUA V0209999C00005015245MN0064375N5+01105+01105999999ADDAA101001095AU110020015AW1615GA1045+013415999GA2085+015245999GD12991+0134159GD24991+0152459MA1100955097705MW1615REMMET09201/01/22 09:35:02 METAR KLUA 011435Z 00000KT 4SM -RA SCT044 OVC050 11/11 A2981 RMK AO2 P0004");
        mockList.add("0288A06884004162022010114556+38667-078501FM-15+0275KLUA V0209999C00005014335MN0064375N5+0110C+0110C999999ADDAA101001395AU110020015AW1615GA1045+007625999GA2075+014335999GA3085+018295999GD12991+0076259GD23991+0143359GD34991+0182959MA1100955097705MW1615REMMET09901/01/22 09:55:02 METAR KLUA 011455Z 00000KT 4SM -RA SCT025 BKN047 OVC060 11/11 A2981 RMK AO2 P0005EQDR01    117TMP046R02    117DPT046");
        mockList.add("0253A06884004162022010115156+38667-078501FM-15+0275KLUA V0209999C00005010365MN0064375N5+01105+01105999999ADDAA101000395AU110020015AW1615GA1045+007015999GA2075+010365999GA3085+016765999GD12991+0070159GD23991+0103659GD34991+0167659MA1100955097705MW1615REMMET09901/01/22 10:15:02 METAR KLUA 011515Z 00000KT 4SM -RA SCT023 BKN034 OVC055 11/11 A2981 RMK AO2 P0001");
        mockList.add("0252A06884004162022010115356+38667-078501FM-15+0275KLUA V0209999C00005009755MN0064375N5+01205+01205999999ADDAA101000595AU120020015AW1625GA1045+006105999GA2075+009755999GA3085+021345999GD12991+0061059GD23991+0097559GD34991+0213459MA1100915097665MW1655REMMET09801/01/22 10:35:02 METAR KLUA 011535Z 00000KT 4SM RA SCT020 BKN032 OVC070 12/12 A2980 RMK AO2 P0002");
        mockList.add("0288A06884004162022010115556+38667-078501FM-15+0275KLUA V0209999C00005010975MN0064375N5+0120C+0120C999999ADDAA101000595AU110020015AW1615GA1045+001835999GA2075+010975999GA3085+027435999GD12991+0018359GD23991+0109759GD34991+0274359MA1100885097635MW1615REMMET09901/01/22 10:55:02 METAR KLUA 011555Z 00000KT 4SM -RA SCT006 BKN036 OVC090 12/12 A2979 RMK AO2 P0002EQDR01    127TMP046R02    127DPT046");
        mockList.add("0252A06884004162022010116156+38667-078501FM-15+0275KLUA V0209999C00005028965MN0064375N5+01205+01205999999ADDAA101000395AU120010015AW1525GA1045+001525999GA2045+007325999GA3075+028965999GD12991+0015259GD22991+0073259GD33991+0289659MA1100855097605MW1555REMMET09801/01/22 11:15:02 METAR KLUA 011615Z 00000KT 4SM DZ SCT005 SCT024 BKN095 12/12 A2978 RMK AO2 P0001");
        mockList.add("0252A06884004162022010116356+38667-078501FM-15+0275KLUA V0209999C00005013415MN0080475N5+01305+01305999999ADDAA101000395AU120020015AW1625GA1045+000915999GA2075+013415999GA3085+030485999GD12991+0009159GD23991+0134159GD34991+0304859MA1100785097535MW1655REMMET09801/01/22 11:35:02 METAR KLUA 011635Z 00000KT 5SM RA SCT003 BKN044 OVC100 13/13 A2976 RMK AO2 P0001");
        mockList.add("0287A06884004162022010116556+38667-078501FM-15+0275KLUA V0209999C00005000915MN0080475N5+0130C+0130C999999ADDAA101000395AU120010015AW1525GA1075+000915999GA2075+010365999GA3085+021345999GD13991+0009159GD23991+0103659GD34991+0213459MA1100715097465MW1555REMMET09801/01/22 11:55:02 METAR KLUA 011655Z 00000KT 5SM DZ BKN003 BKN034 OVC070 13/13 A2974 RMK AO2 P0001EQDR01    137TMP046R02    137DPT046");
        mockList.add("0157A06884004162022010117156+38667-078501FM-15+0275KLUA V0209999C00005000915MN0028165N5+01205+01205999999ADDAU100001015AW1105GA1085+000915999GD14991+0009159MA1100645097405REMMET08201/01/22 12:15:02 METAR KLUA 011715Z 00000KT 1 3/4SM BR OVC003 12/12 A2972 RMK AO2");
        mockList.add("0157A06884004162022010117356+38667-078501FM-15+0275KLUA V0209999C00005000305MN0040235N5+01305+01305999999ADDAU100001015AW1105GA1085+000305999GD14991+0003059MA1100615097375REMMET08201/01/22 12:35:02 METAR KLUA 011735Z 00000KT 2 1/2SM BR OVC001 13/13 A2971 RMK AO2");
        mockList.add("0287A06884004162022010117556+38667-078501FM-15+0275KLUA V0209999C00005028965MN0064375N5+0130C+0130C999999ADDAA101000395AU120020015AW1625GA1045+000305999GA2045+006105999GA3075+028965999GD12991+0003059GD22991+0061059GD33991+0289659MA1100545097305MW1655REMMET09801/01/22 12:55:02 METAR KLUA 011755Z 00000KT 4SM RA SCT001 SCT020 BKN095 13/13 A2969 RMK AO2 P0001EQDR01    137TMP046R02    137DPT046");
        mockList.add("0229A06884004162022010118156+38667-078501FM-15+0275KLUA V0209999C00005028965MN0064375N5+01405+01405999999ADDAU100001015AW1105GA1045+000915999GA2045+016765999GA3085+028965999GD12991+0009159GD22991+0167659GD34991+0289659MA1100545097305REMMET09201/01/22 13:15:02 METAR KLUA 011815Z 00000KT 4SM BR SCT003 SCT055 OVC095 14/14 A2969 RMK AO2");
        mockList.add("0229A06884004162022010118356+38667-078501FM-15+0275KLUA V0209999C00005033535MN0048285N5+01405+01405999999ADDAU100001015AW1105GA1045+000305999GA2045+028965999GA3085+033535999GD12991+0003059GD22991+0289659GD34991+0335359MA1100515097275REMMET09201/01/22 13:35:02 METAR KLUA 011835Z 00000KT 3SM BR SCT001 SCT095 OVC110 14/14 A2968 RMK AO2");
        mockList.add("0226A06884004162022010118556+38667-078501FM-15+0275KLUA V0209999C00005030485MN0080475N5+0150C+0150C999999ADDAU100001015AW1105GA1045+000305999GA2075+030485999GD12991+0003059GD23991+0304859MA1100475097235REMMET08501/01/22 13:55:02 METAR KLUA 011855Z 00000KT 5SM BR SCT001 BKN100 15/15 A2967 RMK AO2EQDR01    157TMP046R02    157DPT046");
        mockList.add("0229A06884004162022010119156+38667-078501FM-15+0275KLUA V0209999C00005027435MN0080475N5+01505+01505999999ADDAU100001015AW1105GA1045+000305999GA2075+027435999GA3075+036585999GD12991+0003059GD23991+0274359GD33991+0365859MA1100475097235REMMET09201/01/22 14:15:02 METAR KLUA 011915Z 00000KT 5SM BR SCT001 BKN090 BKN120 15/15 A2967 RMK AO2");
        mockList.add("0131A06884004162022010119356+38667-078501FM-15+0275KLUA V0209999C000052200059N0160935N5+01605+01505999999ADDGA1005+999999999GD10991+9999999MA1100445097205REMMET07301/01/22 14:35:02 METAR KLUA 011935Z 00000KT 10SM CLR 16/15 A2966 RMK AO2");
        mockList.add("0168A06884004162022010119556+38667-078501FM-15+0275KLUA V0209999C00005018295MN0112655N5+0160C+0150C999999ADDGA1075+018295999GD13991+0182959MA1100445097205REMMET07501/01/22 14:55:02 METAR KLUA 011955Z 00000KT 7SM BKN060 16/15 A2966 RMK AO2EQDR01    167TMP046R02    157DPT046");
        mockList.add("0133A06884004162022010120156+38667-078501FM-15+0275KLUA V0209999C00005016765MN0112655N5+01605+01505999999ADDGA1085+016765999GD14991+0167659MA1100415097175REMMET07501/01/22 15:15:02 METAR KLUA 012015Z 00000KT 7SM OVC055 16/15 A2965 RMK AO2");
        mockList.add("0191A06884004162022010120356+38667-078501FM-15+0275KLUA V0209999C00005015245MN0080475N5+01505+01505999999ADDAU100001015AW1105GA1075+015245999GA2085+018295999GD13991+0152459GD24991+0182959MA1100375097145REMMET08501/01/22 15:35:02 METAR KLUA 012035Z 00000KT 5SM BR BKN050 OVC060 15/15 A2964 RMK AO2");
        mockList.add("0206A06884004162022010120556+38667-078501FM-15+0275KLUA V0200305N00155015245MN0112655N5+0150C+0150C999999ADDGA1075+015245999GA2085+030485999GD13991+0152459GD24991+0304859MA1100375097145REMMET08201/01/22 15:55:02 METAR KLUA 012055Z 03003KT 7SM BKN050 OVC100 15/15 A2964 RMK AO2EQDR01    157TMP046R02    157DPT046");
        mockList.add("0171A06884004162022010121156+38667-078501FM-15+0275KLUA V0209999C00005015245MN0112655N5+01505+01505999999ADDGA1075+015245999GA2085+024385999GD13991+0152459GD24991+0243859MA1100345097105REMMET08201/01/22 16:15:02 METAR KLUA 012115Z 00000KT 7SM BKN050 OVC080 15/15 A2963 RMK AO2");
        mockList.add("0209A06884004162022010121356+38667-078501FM-15+0275KLUA V0209999C00005024385MN0112655N5+01505+01405999999ADDGA1045+010365999GA2045+014635999GA3075+024385999GD12991+0103659GD22991+0146359GD33991+0243859MA1100345097105REMMET08901/01/22 16:35:02 METAR KLUA 012135Z 00000KT 7SM SCT034 SCT048 BKN080 15/14 A2963 RMK AO2");
        mockList.add("0264A06884004162022010121556+38667-078501FM-15+0275KLUA V0209999C00005022865MN0064375N5+0140C+0130C999999ADDAU100001015AW1105GA1045+010975999GA2045+018295999GA3075+022865999GD12991+0109759GD22991+0182959GD33991+0228659MA1100305097075REMMET09201/01/22 16:55:02 METAR KLUA 012155Z 00000KT 4SM BR SCT036 SCT060 BKN075 14/13 A2962 RMK AO2EQDR01    147TMP046R02    137DPT046");
        mockList.add("0229A06884004162022010122156+38667-078501FM-15+0275KLUA V0200705N002152200059N0064375N5+01305+01305999999ADDAU100001015AW1105GA1045+018295999GA2045+021345999GA3045+028965999GD12991+0182959GD22991+0213459GD32991+0289659MA1100275097045REMMET09201/01/22 17:15:02 METAR KLUA 012215Z 07004KT 4SM BR SCT060 SCT070 SCT095 13/13 A2961 RMK AO2");
        mockList.add("0191A06884004162022010122356+38667-078501FM-15+0275KLUA V0209999C000052200059N0048285N5+01305+01305999999ADDAU100001015AW1105GA1045+022865999GA2045+024385999GD12991+0228659GD22991+0243859MA1100245097005REMMET08501/01/22 17:35:02 METAR KLUA 012235Z 00000KT 3SM BR SCT075 SCT080 13/13 A2960 RMK AO2");
        mockList.add("0190A06884004162022010122556+38667-078501FM-15+0275KLUA V0200205N00155000305MN0008055N5+0130C+0130C999999ADDAU100002015AW1305GA1085+000305999GD14991+0003059MA1100245097005REMMET08001/01/22 17:55:02 METAR KLUA 012255Z 02003KT 1/2SM FG OVC001 13/13 A2960 RMK AO2EQDR01    137TMP046R02    137DPT046");
        mockList.add("0155A06884004162022010123156+38667-078501FM-15+0275KLUA V0200505N00155000305MN0004025N5+01305+01205999999ADDAU100002015AW1305GA1085+000305999GD14991+0003059MA1100205096975REMMET08001/01/22 18:15:02 METAR KLUA 012315Z 05003KT 1/4SM FG OVC001 13/12 A2959 RMK AO2");
        mockList.add("0155A06884004162022010123356+38667-078501FM-15+0275KLUA V0200405N00265000305MN0008055N5+01205+01205999999ADDAU100002015AW1305GA1085+000305999GD14991+0003059MA1100205096975REMMET08001/01/22 18:35:02 METAR KLUA 012335Z 04005KT 1/2SM FG OVC001 12/12 A2959 RMK AO2");
        mockList.add("0190A06884004162022010123556+38667-078501FM-15+0275KLUA V0200305N00155000305MN0004025N5+0120C+0120C999999ADDAU100002015AW1305GA1085+000305999GD14991+0003059MA1100175096945REMMET08001/01/22 18:55:02 METAR KLUA 012355Z 03003KT 1/4SM FG OVC001 12/12 A2958 RMK AO2EQDR01    127TMP046R02    127DPT046");
        mockList.add("0155A06884004162022010200156+38667-078501FM-15+0275KLUA V0200305N00155000305MN0004025N5+01205+01205999999ADDAU100002015AW1305GA1085+000305999GD14991+0003059MA1100175096945REMMET08001/01/22 19:15:01 METAR KLUA 020015Z 03003KT 1/4SM FG OVC001 12/12 A2958 RMK AO2");
        mockList.add("0155A06884004162022010200356+38667-078501FM-15+0275KLUA V0200505N00155000305MN0004025N5+01205+01205999999ADDAU100002015AW1305GA1085+000305999GD14991+0003059MA1100175096945REMMET08001/01/22 19:35:01 METAR KLUA 020035Z 05003KT 1/4SM FG OVC001 12/12 A2958 RMK AO2");
        mockList.add("0190A06884004162022010200556+38667-078501FM-15+0275KLUA V0200305N00265000305MN0012075N5+0120C+0120C999999ADDAU100001015AW1105GA1085+000305999GD14991+0003059MA1100175096945REMMET08001/01/22 19:55:01 METAR KLUA 020055Z 03005KT 3/4SM BR OVC001 12/12 A2958 RMK AO2EQDR01    127TMP046R02    127DPT046");
        mockList.add("0153A06884004162022010201156+38667-078501FM-15+0275KLUA V0200405N00265000305MN0032195N5+01305+01305999999ADDAU100001015AW1105GA1085+000305999GD14991+0003059MA1100175096945REMMET07801/01/22 20:15:01 METAR KLUA 020115Z 04005KT 2SM BR OVC001 13/13 A2958 RMK AO2");
        mockList.add("0197A06884004162022010201356+38667-078501FM-15+0275KLUA V0200305N00415000305MN0064375N5+01305+01305999999ADDAU120020015AW1625GA1075+000305999GA2085+001835999GD13991+0003059GD24991+0018359MA1100275097045MW1655REMMET08501/01/22 20:35:01 METAR KLUA 020135Z 03008KT 4SM RA BKN001 OVC006 13/13 A2961 RMK AO2");
        mockList.add("0288A06884004162022010201556+38667-078501FM-15+0275KLUA V0200505N00265000915MN0032195N5+0130C+0130C999999ADDAA101004395AU130020015AW1635GA1075+000915999GA2075+005495999GA3085+008235999GD13991+0009159GD23991+0054959GD34991+0082359MA1100305097075MW1635REMMET09901/01/22 20:55:01 METAR KLUA 020155Z 05005KT 2SM +RA BKN003 BKN018 OVC027 13/13 A2962 RMK AO2 P0017EQDR01    137TMP046R02    137DPT046");
        mockList.add("0237A06884004162022010202156+38667-078501FM-15+0275KLUA V0200705N00415005185MN0160935N5+01305+01305999999ADDAU110020015AW1615GA1075+005185999GA2075+007015999GA3085+010975999GD13991+0051859GD23991+0070159GD34991+0109759MA1100275097045MW1615REMMET09401/01/22 21:15:01 METAR KLUA 020215Z 07008KT 10SM -RA BKN017 BKN023 OVC036 13/13 A2961 RMK AO2");
        mockList.add("0172A06884004162022010202356+38667-078501FM-15+0275KLUA V0203305N00155000915MN0160935N5+01305+01305999999ADDGA1075+000915999GA2085+005495999GD13991+0009159GD24991+0054959MA1100415097175REMMET08301/01/22 21:35:01 METAR KLUA 020235Z 33003KT 10SM BKN003 OVC018 13/13 A2965 RMK AO2");
        mockList.add("0289A06884004162022010202556+38667-078501FM-15+0275KLUA V0209999C00005000915MN0160935N5+0120C+0120C999999ADDAA101000395AU110020015AW1615GA1075+000915999GA2075+003965999GA3085+022865999GD13991+0009159GD23991+0039659GD34991+0228659MA1100375097145MW1615REMMET10001/01/22 21:55:01 METAR KLUA 020255Z 00000KT 10SM -RA BKN003 BKN013 OVC075 12/12 A2964 RMK AO2 P0001EQDR01    127TMP046R02    127DPT046");
        mockList.add("0210A06884004162022010203156+38667-078501FM-15+0275KLUA V0200605N00415014945MN0160935N5+01205+01205999999ADDGA1045+006405999GA2075+014945999GA3085+027435999GD12991+0064059GD23991+0149459GD34991+0274359MA1100445097205REMMET09001/01/22 22:15:01 METAR KLUA 020315Z 06008KT 10SM SCT021 BKN049 OVC090 12/12 A2966 RMK AO2");
        mockList.add("0237A06884004162022010203356+38667-078501FM-15+0275KLUA V0200905N00155005495MN0160935N5+01205+01205999999ADDAU130020015AW1635GA1045+001525999GA2075+005495999GA3085+027435999GD12991+0015259GD23991+0054959GD34991+0274359MA1100475097235MW1635REMMET09401/01/22 22:35:01 METAR KLUA 020335Z 09003KT 10SM +RA SCT005 BKN018 OVC090 12/12 A2967 RMK AO2");
        mockList.add("0289A06884004162022010203556+38667-078501FM-15+0275KLUA V0203205N00155024385MN0160935N5+0120C+0120C999999ADDAA101000395AU110020015AW1615GA1045+006105999GA2045+019815999GA3085+024385999GD12991+0061059GD22991+0198159GD34991+0243859MA1100445097205MW1615REMMET10001/01/22 22:55:01 METAR KLUA 020355Z 32003KT 10SM -RA SCT020 SCT065 OVC080 12/12 A2966 RMK AO2 P0001EQDR01    127TMP046R02    127DPT046");
        mockList.add("0253A06884004162022010204156+38667-078501FM-15+0275KLUA V0209999C00005027435MN0160935N5+01205+01205999999ADDAA101000395AU120020015AW1625GA1045+001835999GA2075+027435999GA3085+033535999GD12991+0018359GD23991+0274359GD34991+0335359MA1100415097175MW1655REMMET09901/01/22 23:15:02 METAR KLUA 020415Z 00000KT 10SM RA SCT006 BKN090 OVC110 12/12 A2965 RMK AO2 P0001");
        mockList.add("0253A06884004162022010204356+38667-078501FM-15+0275KLUA V0209999C00005016765MN0080475N5+01205+01205999999ADDAA101000395AU110010015AW1515GA1045+001225999GA2075+016765999GA3085+030485999GD12991+0012259GD23991+0167659GD34991+0304859MA1100375097145MW1515REMMET09901/01/22 23:35:02 METAR KLUA 020435Z 00000KT 5SM -DZ SCT004 BKN055 OVC100 12/12 A2964 RMK AO2 P0001");
        mockList.add("0205A06884004162022010204556+38667-078501FM-15+0275KLUA V0209999C00005001225MN0016095N5+0120C+0120C999999ADDAA101000395AU100001015AW1105GA1085+001225999GD14991+0012259MA1100375097145REMMET08401/01/22 23:55:02 METAR KLUA 020455Z 00000KT 1SM BR OVC004 12/12 A2964 RMK AO2 P0001EQDR01    127TMP046R02    127DPT046");
        mockList.add("0051A0688400416202201020459O+38667-078501SOD  +0275KLUA V020999999999999999999999999999+99999+99999999999ADDAT1AU16RA  5AT2AU14DZ  5AT3AU01FG  5AT4AU13BR  5");
        mockList.add("0191A06884004162022010205156+38667-078501FM-15+0275KLUA V0209999C00005000615MN0016095N5+01205+01205999999ADDAU100001015AW1105GA1075+000615999GA2085+030485999GD13991+0006159GD24991+0304859MA1100345097105REMMET08501/02/22 00:15:02 METAR KLUA 020515Z 00000KT 1SM BR BKN002 OVC100 12/12 A2963 RMK AO2");
        mockList.add("0160A06884004162022010205356+38667-078501FM-15+0275KLUA V0209999C00005027435MN0112655N5+01205+01205999999ADDAU110020015AW1615GA1085+027435999GD14991+0274359MA1100375097145MW1615REMMET07901/02/22 00:35:02 METAR KLUA 020535Z 00000KT 7SM -RA OVC090 12/12 A2964 RMK AO2");
        mockList.add("0250A06884004162022010205556+38667-078501FM-15+0275KLUA V0209999C00005025915MN0112655N5+0120C+0120C999999ADDAA101000395AU110020015AW1615GA1075+025915999GA2085+033535999GD13991+0259159GD24991+0335359MA1100375097145MW1615REMMET09201/02/22 00:55:02 METAR KLUA 020555Z 00000KT 7SM -RA BKN085 OVC110 12/12 A2964 RMK AO2 P0001EQDR01    127TMP046R02    127DPT046");
        mockList.add("0171A06884004162022010206156+38667-078501FM-15+0275KLUA V0201605N00155027435MN0112655N5+01205+01205999999ADDGA1075+027435999GA2085+033535999GD13991+0274359GD24991+0335359MA1100375097145REMMET08201/02/22 01:15:02 METAR KLUA 020615Z 16003KT 7SM BKN090 OVC110 12/12 A2964 RMK AO2");
        mockList.add("0172A06884004162022010206356+38667-078501FM-15+0275KLUA V0201805N00215024385MN0160935N5+01205+01205999999ADDGA1075+024385999GA2085+027435999GD13991+0243859GD24991+0274359MA1100375097145REMMET08301/02/22 01:35:02 METAR KLUA 020635Z 18004KT 10SM BKN080 OVC090 12/12 A2964 RMK AO2");
        mockList.add("0196A06884004162022010206556+38667-078501FM-15+0275KLUA V0209999C00005021345MN0160935N5+0120C+0120C999999ADDAU110020015AW1615GA1085+021345999GD14991+0213459MA1100415097175MW1615REMMET08001/02/22 01:55:02 METAR KLUA 020655Z 00000KT 10SM -RA OVC070 12/12 A2965 RMK AO2EQDR01    127TMP046R02    127DPT046");
        mockList.add("0215A06884004162022010207156+38667-078501FM-15+0275KLUA V0209999C00005024385MN0160935N5+01305+01305999999ADDAA101000395AU120020015AW1625GA1045+019815999GA2085+024385999GD12991+0198159GD24991+0243859MA1100415097175MW1655REMMET09201/02/22 02:15:02 METAR KLUA 020715Z 00000KT 10SM RA SCT065 OVC080 13/13 A2965 RMK AO2 P0001");
        mockList.add("0176A06884004162022010207356+38667-078501FM-15+0275KLUA V0209999C00005024385MN0016095N5+01205+01205999999ADDAA101000595AU120020015AW1625GA1085+024385999GD14991+0243859MA1100415097175MW1655REMMET08401/02/22 02:35:02 METAR KLUA 020735Z 00000KT 1SM RA OVC080 12/12 A2965 RMK AO2 P0002");
        mockList.add("0211A06884004162022010207556+38667-078501FM-15+0275KLUA V0201605N00155022865MN0080475N5+0120C+0120C999999ADDAA101000595AU120010015AW1525GA1085+022865999GD14991+0228659MA1100345097105MW1555REMMET08401/02/22 02:55:02 METAR KLUA 020755Z 16003KT 5SM DZ OVC075 12/12 A2963 RMK AO2 P0002EQDR01    127TMP046R02    127DPT046");
        mockList.add("0164A06884004162022010208156+38667-078501FM-15+0275KLUA V0203205N00215022865MN0040235N5+01205+01205999999ADDAU110020015AW1615GA1085+022865999GD14991+0228659MA1100305097075MW1615REMMET08301/02/22 03:15:02 METAR KLUA 020815Z 32004KT 2 1/2SM -RA OVC075 12/12 A2962 RMK AO2");
        mockList.add("0193A06884004162022010208356+38667-078501FM-15+0275KLUA V0202005N00215000615MN0012075N5+01205+01205999999ADDAU100001015AW1105GA1075+000615999GA2085+025915999GD13991+0006159GD24991+0259159MA1100345097105REMMET08701/02/22 03:35:02 METAR KLUA 020835Z 20004KT 3/4SM BR BKN002 OVC085 12/12 A2963 RMK AO2");
        mockList.add("0234A06884004162022010208556+38667-078501FM-15+0275KLUA V0202005N00365025915MN0160935N5+0120C+0120C999999ADDAU110020015AW1615GA1075+025915999GA2085+036585999GD13991+0259159GD24991+0365859MA1100345097105MW1615REMMET08701/02/22 03:55:02 METAR KLUA 020855Z 20007KT 10SM -RA BKN085 OVC120 12/12 A2963 RMK AO2EQDR01    127TMP046R02    127DPT046");
        mockList.add("0254A06884004162022010209156+38667-078501FM-15+0275KLUA V0202005N00365027435MN0160935N5+01305+01305999999ADDAA101000395AU110020015AW1615GA1045+025915999GA2075+027435999GA3085+036585999GD12991+0259159GD23991+0274359GD34991+0365859MA1100275097045MW1615REMMET10001/02/22 04:15:02 METAR KLUA 020915Z 20007KT 10SM -RA SCT085 BKN090 OVC120 13/13 A2961 RMK AO2 P0001");
        mockList.add("0254A06884004162022010209356+38667-078501FM-15+0275KLUA V0201605N00315027435MN0160935N5+01305+01305999999ADDAA101000395AU110020015AW1615GA1045+016765999GA2045+022865999GA3085+027435999GD12991+0167659GD22991+0228659GD34991+0274359MA1100035096815MW1615REMMET10001/02/22 04:35:02 METAR KLUA 020935Z 16006KT 10SM -RA SCT055 SCT075 OVC090 13/13 A2954 RMK AO2 P0001");
        mockList.add("0262A06884004162022010209556+38667-078501FM-15+0275KLUA V0202405N00365033535MN0160935N5+0130C+0130C999999ADDAA101000395GA1045+022865999GA2045+027435999GA3085+033535999GD12991+0228659GD22991+0274359GD34991+0335359MA1100035096815REMMET09601/02/22 04:55:02 METAR KLUA 020955Z 24007KT 10SM SCT075 SCT090 OVC110 13/13 A2954 RMK AO2 P0001EQDR01    137TMP046R02    137DPT046");
        mockList.add("0134A06884004162022010210156+38667-078501FM-15+0275KLUA V0202305N00625033535MN0160935N5+01305+01305999999ADDGA1075+033535999GD13991+0335359MA1100105096875REMMET07601/02/22 05:15:02 METAR KLUA 021015Z 23012KT 10SM BKN110 13/13 A2956 RMK AO2");
        mockList.add("0145A06884004162022010210356+38667-078501FM-15+0275KLUA V0202105N005752200059N0160935N5+01305+01305999999ADDGA1045+036585999GD12991+0365859MA1100205096975OC100775REMMET07901/02/22 05:35:02 METAR KLUA 021035Z 21011G15KT 10SM SCT120 13/13 A2959 RMK AO2");
        mockList.add("0166A06884004162022010210556+38667-078501FM-15+0275KLUA V0202005N003652200059N0160935N5+0130C+0130C999999ADDGA1005+999999999GD10991+9999999MA1100205096975REMMET07301/02/22 05:55:02 METAR KLUA 021055Z 20007KT 10SM CLR 13/13 A2959 RMK AO2EQDR01    137TMP046R02    137DPT046");
        mockList.add("0131A06884004162022010211156+38667-078501FM-15+0275KLUA V0202105N003652200059N0160935N5+01305+01205999999ADDGA1005+999999999GD10991+9999999MA1100275097045REMMET07301/02/22 06:15:02 METAR KLUA 021115Z 21007KT 10SM CLR 13/12 A2961 RMK AO2");
        mockList.add("0131A06884004162022010211356+38667-078501FM-15+0275KLUA V0202005N002152200059N0160935N5+01305+01205999999ADDGA1005+999999999GD10991+9999999MA1100275097045REMMET07301/02/22 06:35:02 METAR KLUA 021135Z 20004KT 10SM CLR 13/12 A2961 RMK AO2");
        mockList.add("0166A06884004162022010211556+38667-078501FM-15+0275KLUA V0209999C000052200059N0160935N5+0120C+0120C999999ADDGA1005+999999999GD10991+9999999MA1100275097045REMMET07301/02/22 06:55:02 METAR KLUA 021155Z 00000KT 10SM CLR 12/12 A2961 RMK AO2EQDR01    127TMP046R02    127DPT046");
        mockList.add("0131A06884004162022010212156+38667-078501FM-15+0275KLUA V0201705N001552200059N0160935N5+01205+01205999999ADDGA1005+999999999GD10991+9999999MA1100305097075REMMET07301/02/22 07:15:02 METAR KLUA 021215Z 17003KT 10SM CLR 12/12 A2962 RMK AO2");
        mockList.add("0134A06884004162022010212356+38667-078501FM-15+0275KLUA V0201805N002152200059N0160935N5+01205+01205999999ADDGA1045+015245999GD12991+0152459MA1100375097145REMMET07601/02/22 07:35:02 METAR KLUA 021235Z 18004KT 10SM SCT050 12/12 A2964 RMK AO2");
        mockList.add("0169A06884004162022010212556+38667-078501FM-15+0275KLUA V0209999C000052200059N0160935N5+0130C+0120C999999ADDGA1045+016765999GD12991+0167659MA1100415097175REMMET07601/02/22 07:55:02 METAR KLUA 021255Z 00000KT 10SM SCT055 13/12 A2965 RMK AO2EQDR01    137TMP046R02    127DPT046");
        mockList.add("0134A06884004162022010213156+38667-078501FM-15+0275KLUA V0209999C000052200059N0160935N5+01205+01105999999ADDGA1045+016765999GD12991+0167659MA1100445097205REMMET07601/02/22 08:15:02 METAR KLUA 021315Z 00000KT 10SM SCT055 12/11 A2966 RMK AO2");
        mockList.add("0131A06884004162022010213356+38667-078501FM-15+0275KLUA V0202105N002152200059N0160935N5+01305+01205999999ADDGA1005+999999999GD10991+9999999MA1100515097275REMMET07301/02/22 08:35:02 METAR KLUA 021335Z 21004KT 10SM CLR 13/12 A2968 RMK AO2");
        return mockList;
    }

}
